[{"OBJECT_NAME":"STARLINK-35676","OBJECT_ID":"2026-003M","EPOCH":"2026-03-09T11:27:27.535392","MEAN_MOTION":15.27573613,"ECCENTRICITY":0.0001337,"INCLINATION":43,"RA_OF_ASC_NODE":228.067,"ARG_OF_PERICENTER":268.6448,"MEAN_ANOMALY":91.425,"EPHEMERIS_TYPE":0,"CLASSIFICATION_TYPE":"U","NORAD_CAT_ID":67345,"ELEMENT_SET_NO":999,"REV_AT_EPOCH":879,"BSTAR":0.00043947376,"MEAN_MOTION_DOT":0.00011848,"MEAN_MOTION_DDOT":0},{"OBJECT_NAME":"OBJECT E","OBJECT_ID":"2026-023E","EPOCH":"2026-03-09T23:33:47.695392","MEAN_MOTION":15.23129165,"ECCENTRICITY":0.00204824,"INCLINATION":96.6311,"RA_OF_ASC_NODE":141.8855,"ARG_OF_PERICENTER":125.9066,"MEAN_ANOMALY":234.4078,"EPHEMERIS_TYPE":0,"CLASSIFICATION_TYPE":"U","NORAD_CAT_ID":67678,"ELEMENT_SET_NO":999,"REV_AT_EPOCH":489,"BSTAR":0.00066049733,"MEAN_MOTION_DOT":0.00015639,"MEAN_MOTION_DDOT":0}]
